KUIPER-00165            
1 65778U 25217S   25336.16671295 -.01283712  00000+0 -46347-1 0  9996
2 65778  51.8710 115.6502 0004690 302.2294 149.0079 15.30835350  4612
KUIPER-00166            
1 65779U 25217T   25335.86157687  .00042061  00000+0  11012-2 0  9996
2 65779  51.8697 116.8352 0003851 287.3485  72.7081 15.38293818 10376
KUIPER-00167            
1 65780U 25217U   25336.16671295 -.00822449  00000+0 -56460-1 0  9991
2 65780  51.8872 118.8943 0011248 307.5894 309.6150 15.08034620  4518
KUIPER-00168            
1 65781U 25217V   25335.70137831  .00047754  00000+0  12304-2 0  9990
2 65781  51.8706 117.2708 0002101 197.8189 162.2725 15.38730182 10351
KUIPER-00169            
1 65782U 25217W   25335.73140072  .00050224  00000+0  13353-2 0  9996
2 65782  51.8698 117.4634 0003131 286.3277  73.7365 15.37741005 10359
KUIPER-00170            
1 65783U 25217X   25336.16671295 -.00789758  00000+0 -31904-1 0  9995
2 65783  51.8716 116.3158 0007407 319.9902 183.8031 15.26736679  5882
KUIPER-00171            
1 65784U 25217Y   25335.90212318  .00165192  00000+0  14711-2 0  9990
2 65784  51.8568 111.1444 0009217 326.3138  33.7274 15.67378631 10459
KUIPER-00172            
1 65785U 25217Z   25335.77933685  .00037125  00000+0  97226-3 0  9990
2 65785  51.8714 117.0419 0003932 240.4197 119.6398 15.38341575 10365
KUIPER-00173            
1 65786U 25217AA  25336.16671295 -.01060562  00000+0 -32479-1 0  9992
2 65786  51.8709 115.2974 0003429 253.3486  19.9278 15.35942406  5451
KUIPER-00174            
1 65787U 25217AB  25335.90416111  .00048450  00000+0  12712-2 0  9996
2 65787  51.8706 116.3771 0003168 241.9702 118.0964 15.38165674 10388
KUIPER-00176            
1 65788U 25217AC  25336.16671295  .00004406  00000+0  26397-3 0  9990
2 65788  51.8869 117.4752 0003033 291.1733 317.3973 15.12900843  4779
KUIPER-00101            
1 65947U 25228A   25336.16671295  .00038078  00000+0  23949-2 0  9990
2 65947  51.9085  74.0044 0003158 337.7368 234.6515 15.08852708  5302
KUIPER-00113            
1 65948U 25228B   25336.16671295 -.00968939  00000+0 -52338-1 0  9994
2 65948  51.8811  72.2635 0006087 323.9515 311.3394 15.17063919  4394
KUIPER-00117            
1 65949U 25228C   25336.16671295  .00039653  00000+0  21137-2 0  9999
2 65949  51.8919  72.9965 0009382 334.3766 299.4425 15.14767839  5371
KUIPER-00121            
1 65950U 25228D   25336.16671295 -.00734436  00000+0 -28019-1 0  9999
2 65950  51.8830  71.7739 0006126 342.2629 223.0834 15.28442995  5252
KUIPER-00122            
1 65951U 25228E   25336.16671295 -.00312785  00000+0 -25661-1 0  9999
2 65951  51.9089  75.4367 0006184   3.1948 233.2374 15.00449273  5178
KUIPER-00123            
1 65952U 25228F   25336.16671295 -.01161005  00000+0 -10160+0 0  9994
2 65952  51.8926  75.4325 0006654 330.9013 154.6882 14.99577543  5706
KUIPER-00124            
1 65953U 25228G   25336.16671295 -.00495965  00000+0 -18449-1 0  9999
2 65953  51.8827  71.8393 0004312 343.1265 188.5422 15.29129358  5376
KUIPER-00125            
1 65954U 25228H   25335.97465249  .00020863  00000+0  59765-3 0  9995
2 65954  51.8787  72.3960 0006097 329.3809  30.6820 15.35863754  8767
KUIPER-00126            
1 65955U 25228J   25336.16671295 -.00267632  00000+0 -18036-1 0  9991
2 65955  51.8999  74.0797 0006092 336.4737 112.7234 15.07551216  4835
KUIPER-00127            
1 65956U 25228K   25336.16671295 -.00752113  00000+0 -40662-1 0  9995
2 65956  51.8917  72.9149 0004132 348.9917  30.2709 15.16804702  3151
KUIPER-00128            
1 65957U 25228L   25336.16671295 -.01731331  00000+0 -66752-1 0  9994
2 65957  51.8817  71.6494 0004659 326.9116 276.8532 15.29155133  5448
KUIPER-00129            
1 65958U 25228M   25335.97150193  .00042265  00000+0  11942-2 0  9992
2 65958  51.8784  72.3858 0006238 317.6399  42.4105 15.35916563  8769
KUIPER-00130            
1 65959U 25228N   25335.98271611  .00032675  00000+0  96577-3 0  9995
2 65959  51.8801  72.4502 0006694 337.2036  22.8652 15.34621848  8766
KUIPER-00134            
1 65960U 25228P   25335.59337025  .00034797  00000+0  10073-2 0  9999
2 65960  51.8780  74.3374 0006940 332.7645  27.2976 15.35243645  8700
KUIPER-00135            
1 65961U 25228Q   25336.16671295 -.00592360  00000+0 -20036-1 0  9990
2 65961  51.8807  71.6167 0004566 325.8005 302.9080 15.32205885  5916
KUIPER-00136            
1 65962U 25228R   25335.96993784  .00038642  00000+0  10930-2 0  9997
2 65962  51.8794  72.3754 0005932 322.4665  37.5907 15.35926510  8768
KUIPER-00137            
1 65963U 25228S   25335.98439406  .00030023  00000+0  87079-3 0  9990
2 65963  51.8793  72.4698 0006022 341.0833  18.9928 15.35262869  8767
KUIPER-00138            
1 65964U 25228T   25335.53257478  .00035240  00000+0  10191-2 0  9995
2 65964  51.8803  74.6830 0007660 338.7979  21.2688 15.35264336  8698
KUIPER-00140            
1 65965U 25228U   25335.53733177  .00045525  00000+0  13325-2 0  9990
2 65965  51.8799  74.7162 0006328 326.9638  33.0951 15.34774693  8698
KUIPER-00141            
1 65966U 25228V   25335.97370377  .00043515  00000+0  12304-2 0  9991
2 65966  51.8787  72.3912 0005979 328.8638  31.1994 15.35881110  8763
KUIPER-00146            
1 65967U 25228W   25335.98103867  .00037206  00000+0  10721-2 0  9992
2 65967  51.8805  72.4491 0006599 331.9641  28.0989 15.35358351  8761
KUIPER-00149            
1 65968U 25228X   25335.96965836  .00040085  00000+0  11315-2 0  9992
2 65968  51.8790  72.3678 0005555 323.6349  36.4259 15.35973554  8766
KUIPER-00154            
1 65969U 25228Y   25335.97264679  .00026281  00000+0  75770-3 0  9999
2 65969  51.8783  72.3871 0005791 323.9217  36.1378 15.35524883  8769
KUIPER-00157            
1 65970U 25228Z   25335.98508800  .00035920  00000+0  10378-2 0  9991
2 65970  51.8792  72.4741 0006889 340.5530  19.5192 15.35288616  8760
